GLOBALSTAR M023 [+]     
1 25621U 99004A   24110.63983681 -.00000041  00000+0  34994-3 0  9997
2 25621  52.0103 263.1029 0009551 270.2741 170.7925 12.62450976162232
GLOBALSTAR M040 [-]     
1 25622U 99004B   24110.60895407 -.00000063  00000+0  23015-3 0  9999
2 25622  51.9911 266.7284 0001141 145.3250 294.3126 12.61971456161778
GLOBALSTAR M036 [-]     
1 25623U 99004C   24110.48383006 -.00000076  00000+0  96519-4 0  9997
2 25623  51.9962 277.0768 0010673 320.3594  58.0427 11.86566842128680
GLOBALSTAR M038 [-]     
1 25624U 99004D   24110.61856145 -.00000060  00000+0  29247-3 0  9998
2 25624  51.9964 211.3691 0001622 233.4217 233.7875 12.32497253150145
GLOBALSTAR M022 [-]     
1 25649U 99012A   24110.17238628 -.00000065  00000+0  26093-3 0  9996
2 25649  52.0077   3.5473 0003136  53.2706 114.1617 12.02480297125360
GLOBALSTAR M041 [-]     
1 25650U 99012B   24110.48180861 -.00000089  00000+0 -45452-4 0  9995
2 25650  52.0012 231.2386 0002578 185.2394 174.8415 11.96660287127555
GLOBALSTAR M046 [-]     
1 25651U 99012C   24109.79812507 -.00000078  00000+0  12180-3 0  9995
2 25651  52.0071 330.1923 0002925 115.3949   9.8770 12.09389322132317
GLOBALSTAR M037 [+]     
1 25652U 99012D   24110.21856477 -.00000071  00000+0  18328-3 0  9992
2 25652  52.0028  35.1632 0001926 346.1279 160.7453 12.62401487157777
